CZ-4B R/B               
1 28059U 03049C   17153.29958852 -.00000003  00000-0  11424-4 0  9995
2 28059  98.5635  38.9469 0049082 293.4326 176.9671 14.52488492721524
CZ-2C R/B               
1 28222U 04012C   17152.99124330  .00000346  00000-0  25322-4 0  9991
2 28222  97.5238 109.7697 0046921 236.8853 165.0712 15.09223521718321
SL-16 R/B               
1 28353U 04021B   17153.22381840 -.00000209  00000-0 -84340-4 0  9999
2 28353  70.9996 109.8467 0006939 235.6113 124.4353 14.14192209670037
CZ-2C R/B               
1 28480U 04046B   17153.29326422  .00000025  00000-0  25637-4 0  9997
2 28480  98.1950 250.4429 0140737 268.5024 153.4406 14.25638222652091
ARIANE 5 R/B            
1 28499U 04049H   17153.23364781  .00000046  00000-0  13287-4 0  9995
2 28499  98.0787 236.1645 0091063 263.8276 107.1560 14.79814926671749
CZ-2D R/B               
1 28738U 05024B   17153.16899753  .00000621  00000-0  40763-4 0  9997
2 28738  97.4980 190.3435 0013659  60.7998 299.4596 15.11131792653521
SUZAKU (ASTRO-EII)      
1 28773U 05025A   17153.11308845  .00001211  00000-0  57411-4 0  9993
2 28773  31.3838  34.1831 0004797 198.4012 161.6462 15.15790025655082
ALOS (DAICHI)           
1 28931U 06002A   17153.29018323  .00000230  00000-0  54103-4 0  9998
2 28931  97.8444 181.3910 0001956  58.5764 301.5630 14.62356332605284
H-2A R/B                
1 28932U 06002B   17153.27777149  .00000547  00000-0  57221-4 0  9990
2 28932  98.2073  75.5645 0090140   1.3410 159.3598 14.91361063615477
AKARI (ASTRO-F)         
1 28939U 06005A   17153.18305018  .00002245  00000-0  71653-4 0  9994
2 28939  98.2544 352.7385 0105836 238.0940 120.9968 15.28560159610809
RESURS-DK 1             
1 29228U 06021A   17153.25825305  .00000176  00000-0  20746-4 0  9996
2 29228  69.9341 136.0607 0005388 329.1277  30.9566 15.02155309605859
GENESIS 1               
1 29252U 06029A   17153.07926508  .00000414  00000-0  31222-4 0  9994
2 29252  64.5057 334.8544 0013516 310.2407 189.2260 15.16767167599540
CZ-4B R/B               
1 29507U 06046C   17153.12852600 -.00000566  00000-0 -39457-4 0  9991
2 29507  97.7895 160.6754 0042452 291.8928  67.7784 15.00080343578783
CZ-2C R/B               
1 31114U 07010B   17153.25213232 -.00000013  00000-0  13463-4 0  9991
2 31114  98.4002  56.5054 0058547 258.8805 100.5785 14.19242564525382
COSMO-SKYMED 1          
1 31598U 07023A   17153.25372265 -.00000283  00000-0 -28984-4 0  9997
2 31598  97.8842 337.1843 0001381  80.7923 279.3442 14.82155932540232
GENESIS 2               
1 31789U 07028A   17153.15743034  .00000374  00000-0  29737-4 0  9995
2 31789  64.5051  12.4876 0032010 224.3599 135.4958 15.16038808546638
COSMOS 2428             
1 31792U 07029A   17153.25862238  .00000151  00000-0  10793-3 0  9993
2 31792  70.9159  83.4480 0010594 284.7334  75.2612 14.12267001511871
SL-16 R/B               
1 31793U 07029B   17153.24553412  .00000037  00000-0  44535-4 0  9999
2 31793  70.9760  60.5490 0001980 252.3934 235.6623 14.14377135512566
KORONAS-FOTON           
1 33504U 09003A   17153.23939090  .00000140  00000-0  57594-5 0  9999
2 33504  82.4438 247.8292 0020114 157.4626 202.7494 15.14817481459117
TIANGONG 1              
1 37820U 11053A   17153.19194444  .00023539  00000-0  13350-3 0  9990
2 37820  42.7598 291.7755 0019962 328.8890  37.4152 15.78263150325604
CZ-3B R/B               
1 38253U 12018D   17153.21616998  .00712116  52021-5  23298-3 0  9992
2 38253  54.8494 235.7845 1455879 243.6037 100.8431 13.01410593126334
H-2A R/B                
1 38341U 12025E   17153.19838068  .00000210  00000-0  32373-4 0  9994
2 38341  98.4345 229.3826 0055447 205.3555 154.4934 14.83568995272577
CUSAT 2 & FALCON 9 R/B  
1 39271U 13055G   17153.21322231  .00002814  00000-0  73238-4 0  9991
2 39271  80.9698  12.9763 0632999 246.5540 106.7908 14.37001397190473
ALOS-2                  
1 39766U 14029A   17153.23573311 -.00000240  00000-0 -25231-4 0  9994
2 39766  97.9212 250.7715 0001503  87.0045 273.1358 14.79469636163399
ASTRO-H (HITOMI)        
1 41337U 16012A   17153.26714280  .00000291  00000-0  16852-4 0  9993
2 41337  31.0049 213.3450 0012549 253.6538 106.2717 14.98304002 70684
